OBJECT_NAME,OBJECT_ID,EPOCH,MEAN_MOTION,ECCENTRICITY,INCLINATION,RA_OF_ASC_NODE,ARG_OF_PERICENTER,MEAN_ANOMALY,EPHEMERIS_TYPE,CLASSIFICATION_TYPE,NORAD_CAT_ID,ELEMENT_SET_NO,REV_AT_EPOCH,BSTAR,MEAN_MOTION_DOT,MEAN_MOTION_DDOT
IRIDIUM 135,2017-083A,2026-07-21T06:26:27.183552,14.34217467,.00021131,86.3985,307.7701,94.9386,265.2052,0,U,43070,999,44903,-.11295753E-4,-.12E-6,0
IRIDIUM 138,2017-083B,2026-07-21T05:22:31.109952,14.34217415,.00020633,86.4000,307.4892,95.5579,264.5852,0,U,43071,999,44901,.25032492E-4,.9E-6,0
IRIDIUM 116,2017-083C,2026-07-21T06:17:19.276224,14.34217462,.00025081,86.3985,307.7582,97.0762,263.0719,0,U,43072,999,44905,.50691392E-4,.162E-5,0
IRIDIUM 130,2017-083D,2026-07-21T07:12:07.195392,14.34219098,.00023489,86.3996,308.0210,100.8728,259.2733,0,U,43073,999,44900,.11861018E-3,.352E-5,0
IRIDIUM 151,2017-083E,2026-07-20T18:52:19.207488,14.34217842,.00022681,86.3988,308.0154,95.1496,264.9958,0,U,43074,999,44895,.18788474E-4,.72E-6,0
IRIDIUM 134,2017-083F,2026-07-21T05:49:55.191360,14.34217691,.00022495,86.3988,307.8334,96.1607,263.9845,0,U,43075,999,44898,-.2625044E-5,.12E-6,0
IRIDIUM 137,2017-083G,2026-07-21T06:08:11.266944,14.34217565,.00025351,86.3989,307.9215,90.2079,269.9408,0,U,43076,999,44905,-.6407703E-5,.2E-7,0
IRIDIUM 141,2017-083H,2026-07-21T05:59:03.236064,14.34217410,.00021503,86.3985,307.7527,94.0156,266.1285,0,U,43077,999,44905,.9531281E-5,.46E-6,0
IRIDIUM 153,2017-083J,2026-07-21T04:50:11.395392,14.34217512,.0002023,86.3954,276.2504,95.7564,264.3862,0,U,43078,999,45015,-.5231823E-5,.5E-7,0
IRIDIUM 131,2017-083K,2026-07-21T05:40:47.197632,14.34217467,.00020901,86.3988,307.9462,93.2312,266.9123,0,U,43079,999,44898,-.9499725E-5,-.7E-7,0
IRIDIUM 144,2018-030A,2026-07-21T03:18:51.433920,14.34217684,.00023899,86.3953,276.2057,96.0008,264.1461,0,U,43249,999,43500,.30954763E-4,.106E-5,0
IRIDIUM 149,2018-030B,2026-07-21T05:08:27.434688,14.34217398,.0002122,86.3951,276.1402,93.7878,266.3561,0,U,43250,999,43503,-.10364862E-4,-.9E-7,0
IRIDIUM 157,2018-030C,2026-07-21T03:55:23.441664,14.34218048,.00022445,86.3950,276.2154,94.6864,265.4588,0,U,43251,999,43500,.33828037E-4,.115E-5,0
IRIDIUM 140,2018-030D,2026-07-20T21:40:55.407648,14.34219158,.00022709,86.3952,276.3367,95.5590,264.5865,0,U,43252,999,43502,.48015382E-4,.154E-5,0
IRIDIUM 145,2018-030E,2026-07-21T04:04:31.511424,14.34217474,.00025766,86.3950,276.1973,96.9652,263.1837,0,U,43253,999,43499,.4513456E-5,.32E-6,0
IRIDIUM 146,2018-030F,2026-07-21T03:37:07.509504,14.34217226,.00022573,86.3953,276.2175,95.4771,264.6683,0,U,43254,999,43500,-.6222685E-5,.2E-7,0
IRIDIUM 148,2018-030G,2026-07-21T04:31:55.475328,14.34218145,.0002305,86.3954,276.2457,94.1440,266.0020,0,U,43255,999,43504,.36488198E-4,.122E-5,0
IRIDIUM 142,2018-030H,2026-07-21T03:46:15.482496,14.34217854,.00023191,86.3951,276.1463,95.9732,264.1728,0,U,43256,999,43500,.44337285E-4,.144E-5,0
IRIDIUM 150,2018-030J,2026-07-21T04:41:03.469056,14.34217061,.00022198,86.3953,276.2477,96.1849,263.9600,0,U,43257,999,43503,-.280289E-6,.19E-6,0
IRIDIUM 143,2018-030K,2026-07-20T18:10:51.466368,14.34217885,.00023311,86.3955,276.5247,95.7340,264.4121,0,U,43258,999,43490,.20144864E-4,.76E-6,0
IRIDIUM 161,2018-047C,2026-07-21T03:23:12.066432,14.43277777,.00021555,86.4456,74.2703,80.8951,279.2494,0,U,43478,999,43003,.54594395E-4,.204E-5,0
IRIDIUM 152,2018-047D,2026-07-21T03:34:22.213344,14.34217496,.00019569,86.3927,74.1280,83.7305,276.4114,0,U,43479,999,42735,-.21630738E-4,-.41E-6,0
IRIDIUM 147,2018-047E,2026-07-21T03:43:30.245088,14.34217952,.00022858,86.3932,74.1314,87.4801,272.6657,0,U,43480,999,42735,.18288741E-4,.71E-6,0
IRIDIUM 110,2018-047F,2026-07-21T02:12:10.094400,14.34217749,.0002012,86.3936,74.2509,78.3003,281.8418,0,U,43481,999,42733,.77182515E-4,.236E-5,0
IRIDIUM 162,2018-047G,2026-07-21T03:14:07.224576,14.43280569,.0002183,86.4454,74.1634,86.6728,273.4723,0,U,43482,999,43002,.5519651E-4,.206E-5,0
IRIDIUM 160,2018-061A,2026-07-21T02:34:38.427744,14.34217955,.00022033,86.3939,42.6078,86.8048,273.3399,0,U,43569,999,41823,.26005892E-4,.93E-6,0
IRIDIUM 166,2018-061B,2026-07-21T01:30:42.507072,14.34217341,.00021798,86.3932,42.5765,90.1361,270.0084,0,U,43570,999,41825,-.10389653E-4,-.9E-7,0
IRIDIUM 158,2018-061C,2026-07-21T02:25:30.480672,14.34218056,.00021131,86.3937,42.5703,89.1531,270.9907,0,U,43571,999,41822,.45926112E-4,.148E-5,0
IRIDIUM 165,2018-061D,2026-07-21T06:22:58.525824,14.34217622,.00022731,86.3943,42.5484,90.5813,269.5643,0,U,43572,999,41827,.18392287E-4,.71E-6,0
IRIDIUM 155,2018-061E,2026-07-21T02:07:14.434464,14.34218158,.00021649,86.3935,42.4901,90.4307,269.7137,0,U,43573,999,41821,.27714236E-4,.97E-6,0
